$$SOE
2459580.500000000, A.D. 2022-Jan-01 00:00:00.0000, -1.356039230261961E+08, 3.467677804121351E+08, 3.754453232051462E+06,
2459587.500000000, A.D. 2022-Jan-08 00:00:00.0000, -1.459414464916368E+08, 3.437201112869414E+08, 4.799026534870535E+06,
2459594.500000000, A.D. 2022-Jan-15 00:00:00.0000, -1.561430065540477E+08, 3.403520740626203E+08, 5.839129142105028E+06,
2459601.500000000, A.D. 2022-Jan-22 00:00:00.0000, -1.662003165352533E+08, 3.366694789310659E+08, 6.873837021712616E+06,
2459608.500000000, A.D. 2022-Jan-29 00:00:00.0000, -1.761053197246550E+08, 3.326782486886129E+08, 7.902244968185008E+06,
2459615.500000000, A.D. 2022-Feb-05 00:00:00.0000, -1.858501854649605E+08, 3.283844117080609E+08, 8.923466344315216E+06,
2459622.500000000, A.D. 2022-Feb-12 00:00:00.0000, -1.954273031657524E+08, 3.237940944301506E+08, 9.936632531634122E+06,
2459629.500000000, A.D. 2022-Feb-19 00:00:00.0000, -2.048292756004018E+08, 3.189135157222762E+08, 1.094089240712035E+07,
2459636.500000000, A.D. 2022-Feb-26 00:00:00.0000, -2.140489128159499E+08, 3.137489823625614E+08, 1.193541190949886E+07,
2459643.500000000, A.D. 2022-Mar-05 00:00:00.0000, -2.230792265086852E+08, 3.083068850067845E+08, 1.291937363231838E+07,
2459650.500000000, A.D. 2022-Mar-12 00:00:00.0000, -2.319134246547419E+08, 3.025936945444098E+08, 1.389197642009985E+07,
2459657.500000000, A.D. 2022-Mar-19 00:00:00.0000, -2.405449063353452E+08, 2.966159588440315E+08, 1.485243496503299E+07,
2459664.500000000, A.D. 2022-Mar-26 00:00:00.0000, -2.489672567443868E+08, 2.903802998556435E+08, 1.579997940314858E+07,
2459671.500000000, A.D. 2022-Apr-02 00:00:00.0000, -2.571742423198687E+08, 2.838934109886563E+08, 1.673385490047209E+07,
2459678.500000000, A.D. 2022-Apr-09 00:00:00.0000, -2.651598057356576E+08, 2.771620547466081E+08, 1.765332120577502E+07,
2459685.500000000, A.D. 2022-Apr-16 00:00:00.0000, -2.729180604043752E+08, 2.701930612499000E+08, 1.855765219170308E+07,
2459692.500000000, A.D. 2022-Apr-23 00:00:00.0000, -2.804432857691674E+08, 2.629933287101377E+08, 1.944613559029706E+07,
2459699.500000000, A.D. 2022-Apr-30 00:00:00.0000, -2.877299252631094E+08, 2.555698235943766E+08, 2.031807291192390E+07,
2459706.500000000, A.D. 2022-May-07 00:00:00.0000, -2.947725838757027E+08, 2.479295784884013E+08, 2.117277910638203E+07,
2459713.500000000, A.D. 2022-May-14 00:00:00.0000, -3.015660239397255E+08, 2.400796906746679E+08, 2.200958208798252E+07,
2459720.500000000, A.D. 2022-May-21 00:00:00.0000, -3.081051611788983E+08, 2.320273221664933E+08, 2.282782237376432E+07,
2459727.500000000, A.D. 2022-May-28 00:00:00.0000, -3.143850615019998E+08, 2.237797002272744E+08, 2.362685280126581E+07,
2459734.500000000, A.D. 2022-Jun-04 00:00:00.0000, -3.204009382700704E+08, 2.153441180479345E+08, 2.440603827575409E+07,
2459741.500000000, A.D. 2022-Jun-11 00:00:00.0000, -3.261481498960871E+08, 2.067279355702434E+08, 2.516475553468706E+07,
2459748.500000000, A.D. 2022-Jun-18 00:00:00.0000, -3.316221977430997E+08, 1.979385804555835E+08, 2.590239292780200E+07,
2459755.500000000, A.D. 2022-Jun-25 00:00:00.0000, -3.368187242963174E+08, 1.889835491531232E+08, 2.661835020829345E+07,
2459762.500000000, A.D. 2022-Jul-02 00:00:00.0000, -3.417335114800601E+08, 1.798704079893782E+08, 2.731203831830624E+07,
2459769.500000000, A.D. 2022-Jul-09 00:00:00.0000, -3.463624787341866E+08, 1.706067944440721E+08, 2.798287914832077E+07,
2459776.500000000, A.D. 2022-Jul-16 00:00:00.0000, -3.507016809103532E+08, 1.612004196827747E+08, 2.863030536489969E+07,
2459783.500000000, A.D. 2022-Jul-23 00:00:00.0000, -3.547473081939871E+08, 1.516590724119460E+08, 2.925376051580604E+07,
2459790.500000000, A.D. 2022-Jul-30 00:00:00.0000, -3.584956879771856E+08, 1.419906206931864E+08, 2.985269913196246E+07,
2459797.500000000, A.D. 2022-Aug-06 00:00:00.0000, -3.619432850878682E+08, 1.322030123557932E+08, 3.042658655036306E+07,
2459804.500000000, A.D. 2022-Aug-13 00:00:00.0000, -3.650867012011842E+08, 1.223042767477036E+08, 3.097489875949252E+07,
2459811.500000000, A.D. 2022-Aug-20 00:00:00.0000, -3.679226750126234E+08, 1.123025273074535E+08, 3.149712237121257E+07,
2459818.500000000, A.D. 2022-Aug-27 00:00:00.0000, -3.704480831162498E+08, 1.022059642202714E+08, 3.199275465497470E+07,
2459825.500000000, A.D. 2022-Sep-03 00:00:00.0000, -3.726599413496839E+08, 9.202287703721297E+07, 3.246130360409086E+07,
2459832.500000000, A.D. 2022-Sep-10 00:00:00.0000, -3.745554065254071E+08, 8.176164726954180E+07, 3.290228802923124E+07,
2459839.500000000, A.D. 2022-Sep-17 00:00:00.0000, -3.761317785294246E+08, 7.143075094490395E+07, 3.331523767778111E+07,
2459846.500000000, A.D. 2022-Sep-24 00:00:00.0000, -3.773865027369037E+08, 6.103876106314810E+07, 3.369969337072934E+07,
2459853.500000000, A.D. 2022-Oct-01 00:00:00.0000, -3.783171725128719E+08, 5.059434991785443E+07, 3.405520713431574E+07,
2459860.500000000, A.D. 2022-Oct-08 00:00:00.0000, -3.789215313962856E+08, 4.010629179154082E+07, 3.438134233236377E+07,
2459867.500000000, A.D. 2022-Oct-15 00:00:00.0000, -3.791974759051256E+08, 2.958346720491779E+07, 3.467767398314798E+07,
2459874.500000000, A.D. 2022-Oct-22 00:00:00.0000, -3.791430611563184E+08, 1.903486701351279E+07, 3.494378932415947E+07,
2459881.500000000, A.D. 2022-Oct-29 00:00:00.0000, -3.787565068226292E+08, 8.469593737266030E+06, 3.517928818569949E+07,
2459888.500000000, A.D. 2022-Nov-05 00:00:00.0000, -3.780362013451773E+08, -2.103137152606823E+06, 3.538378320711733E+07,
2459895.500000000, A.D. 2022-Nov-12 00:00:00.0000, -3.769807063796388E+08, -1.267399474119743E+07, 3.555690018126571E+07,
2459902.500000000, A.D. 2022-Nov-19 00:00:00.0000, -3.755887622107469E+08, -2.323352994852402E+07, 3.569827851686954E+07,
2459909.500000000, A.D. 2022-Nov-26 00:00:00.0000, -3.738592938893515E+08, -3.377217299960716E+07, 3.580757176427328E+07,
2459916.500000000, A.D. 2022-Dec-03 00:00:00.0000, -3.717914179404132E+08, -4.428023112221118E+07, 3.588444819040945E+07,
2459923.500000000, A.D. 2022-Dec-10 00:00:00.0000, -3.693844496095318E+08, -5.474788648152467E+07, 3.592859140228869E+07,
2459930.500000000, A.D. 2022-Dec-17 00:00:00.0000, -3.666379106366082E+08, -6.516519440793135E+07, 3.593970101671139E+07,
2459937.500000000, A.D. 2022-Dec-24 00:00:00.0000, -3.635515374609625E+08, -7.552208201758242E+07, 3.591749336292440E+07,
2459944.500000000, A.D. 2022-Dec-31 00:00:00.0000, -3.601252895138541E+08, -8.580834715468194E+07, 3.586170219643833E+07,
2459951.500000000, A.D. 2023-Jan-07 00:00:00.0000, -3.563593574882240E+08, -9.601365673223409E+07, 3.577207949360943E+07,
2459958.500000000, A.D. 2023-Jan-14 00:00:00.0000, -3.522541735638956E+08, -1.061275440173534E+08, 3.564839655009921E+07,
2459965.500000000, A.D. 2023-Jan-21 00:00:00.0000, -3.478104242453312E+08, -1.161394080816151E+08, 3.549044518534481E+07,
2459972.500000000, A.D. 2023-Jan-28 00:00:00.0000, -3.430290621578166E+08, -1.260385156622800E+08, 3.529803870341495E+07,
2459979.500000000, A.D. 2023-Feb-04 00:00:00.0000, -3.379113170196971E+08, -1.358140024574923E+08, 3.507101287940355E+07,
2459986.500000000, A.D. 2023-Feb-11 00:00:00.0000, -3.324587075884746E+08, -1.454548741043740E+08, 3.480922712197143E+07,
2459993.500000000, A.D. 2023-Feb-18 00:00:00.0000, -3.266730546450933E+08, -1.549500077260604E+08, 3.451256575206454E+07,
2460000.500000000, A.D. 2023-Feb-25 00:00:00.0000, -3.205564947551891E+08, -1.642881542775446E+08, 3.418093936238088E+07,
2460007.500000000, A.D. 2023-Mar-04 00:00:00.0000, -3.141114947039304E+08, -1.734579417424642E+08, 3.381428625178111E+07,
2460014.500000000, A.D. 2023-Mar-11 00:00:00.0000, -3.073408665691679E+08, -1.824478792549939E+08, 3.341257393374538E+07,
2460021.500000000, A.D. 2023-Mar-18 00:00:00.0000, -3.002477833734461E+08, -1.912463622759770E+08, 3.297580071175638E+07,
2460028.500000000, A.D. 2023-Mar-25 00:00:00.0000, -2.928357950936131E+08, -1.998416789553364E+08, 3.250399729996603E+07,
2460035.500000000, A.D. 2023-Apr-01 00:00:00.0000, -2.851088445793787E+08, -2.082220173768681E+08, 3.199722848279466E+07,
2460042.500000000, A.D. 2023-Apr-08 00:00:00.0000, -2.770712839643950E+08, -2.163754725539558E+08, 3.145559496979190E+07,
2460049.500000000, A.D. 2023-Apr-15 00:00:00.0000, -2.687278938660975E+08, -2.242900543804936E+08, 3.087923556856620E+07,
2460056.500000000, A.D. 2023-Apr-22 00:00:00.0000, -2.600839035170499E+08, -2.319536996931836E+08, 3.026832925860066E+07,
2460063.500000000, A.D. 2023-Apr-29 00:00:00.0000, -2.511450090369911E+08, -2.393542862993878E+08, 2.962309709677794E+07,
2460070.500000000, A.D. 2023-May-06 00:00:00.0000, -2.419173915364687E+08, -2.464796472952198E+08, 2.894380425766469E+07,
2460077.500000000, A.D. 2023-May-13 00:00:00.0000, -2.324077359422480E+08, -2.533175866734332E+08, 2.823076221900055E+07,
2460084.500000000, A.D. 2023-May-20 00:00:00.0000, -2.226232502064911E+08, -2.598558968221140E+08, 2.748433102280034E+07,
2460091.500000000, A.D. 2023-May-27 00:00:00.0000, -2.125716845877677E+08, -2.660823780594627E+08, 2.670492158312088E+07,
2460098.500000000, A.D. 2023-Jun-03 00:00:00.0000, -2.022613508157602E+08, -2.719848602976801E+08, 2.589299802842410E+07,
2460105.500000000, A.D. 2023-Jun-10 00:00:00.0000, -1.917011409722953E+08, -2.775512269662708E+08, 2.504908006568104E+07,
2460112.500000000, A.D. 2023-Jun-17 00:00:00.0000, -1.809005458402049E+08, -2.827694413638411E+08, 2.417374534185164E+07,
2460119.500000000, A.D. 2023-Jun-24 00:00:00.0000, -1.698696722209398E+08, -2.876275754794615E+08, 2.326763176387374E+07,
2460126.500000000, A.D. 2023-Jul-01 00:00:00.0000, -1.586192587639524E+08, -2.921138405368889E+08, 2.233143980402364E+07,
2460133.500000000, A.D. 2023-Jul-08 00:00:00.0000, -1.471606917487985E+08, -2.962166185070038E+08, 2.136593499014449E+07,
2460140.500000000, A.D. 2023-Jul-15 00:00:00.0000, -1.355060218363495E+08, -2.999244974776050E+08, 2.037195044282499E+07,
2460147.500000000, A.D. 2023-Jul-22 00:00:00.0000, -1.236679779898816E+08, -3.032263119687912E+08, 1.935038902746877E+07,
$$EOE